COSMOS 1408 DEB         
1 50032U 82092RU  26200.29317718  .00002433  00000+0  45598-4 0  9995
2 50032  82.5617 194.0706 0016652 133.6883 226.5750 15.47923051259820
COSMOS 1408 DEB         
1 50058U 82092SW  26200.03296083  .00051893  00000+0  21543-3 0  9993
2 50058  82.6055 197.4770 0006073  19.3761 340.7739 15.85544684262377
COSMOS 1408 DEB         
1 50621U 82092ALR 26200.05714491  .00027608  00000+0  21242-3 0  9992
2 50621  82.5628 204.3401 0020782  65.4879 294.8548 15.71538205256627
